[Satellite]
VERSION=1.1
NAME=MERIDIAN 9
NICKNAME=MERIDIAN 9
TLE1=1 45254U 20015A   20080.89756208 -.00000122  00000-0  00000+0 0  9998
TLE2=2 45254  62.8470 221.9848 7204003 295.1341 342.5733  2.00676002   587
STATUS=0
